start=new Date('2023-01-01T00:00:00.000Z').valueOf();
sats=[{"ARG_OF_PERICENTER":"102.0003","COUNTRY_CODE":"US","MEAN_MOTION_DDOT":"0.0000000000000","RCS_SIZE":"LARGE","PERIOD":"95.918","BSTAR":"0.00043251000000","MEAN_MOTION":"15.01282798","OBJECT_ID":"2022-084J","RA_OF_ASC_NODE":"64.1297","ELEMENT_SET_NO":"999","REF_FRAME":"TEME","ECCENTRICITY":"0.00014390","REV_AT_EPOCH":"2467","DECAY_DATE":null,"OBJECT_NAME":"STARLINK-4403","NORAD_CAT_ID":"53197","APOAPSIS":"563.940","TLE_LINE2":"2 53197  97.6565  64.1297 0001439 102.0003 258.1383 15.01282798 24679","SITE":"AFWTR","MEAN_MOTION_DOT":"0.00005504","CENTER_NAME":"EARTH","LAUNCH_DATE":"2022-07-22","PERIAPSIS":"561.943","TLE_LINE1":"1 53197U 22084J   22365.68440861  .00005504  00000-0  43251-3 0  9998","OBJECT_TYPE":"PAYLOAD","TIME_SYSTEM":"UTC","SEMIMAJOR_AXIS":"6941.077","EPOCH":"2022-12-31T16:25:32.903904","MEAN_ANOMALY":"258.1383","GP_ID":"221892874","MEAN_ELEMENT_THEORY":"SGP4","FILE":"3728081","INCLINATION":"97.6565","CLASSIFICATION_TYPE":"U","EPHEMERIS_TYPE":"0"},{"TLE_LINE2":"2 53198  97.6563  64.1351 0001653  99.5004 260.6407 15.01281115 25339","SITE":"AFWTR","APOAPSIS":"564.094","MEAN_MOTION_DOT":"0.00008360","ECCENTRICITY":"0.00016530","REF_FRAME":"TEME","OBJECT_NAME":"STARLINK-4385","NORAD_CAT_ID":"53198","REV_AT_EPOCH":"2533","DECAY_DATE":null,"BSTAR":"0.00065433000000","RA_OF_ASC_NODE":"64.1351","ELEMENT_SET_NO":"999","OBJECT_ID":"2022-084K","MEAN_MOTION":"15.01281115","COUNTRY_CODE":"US","ARG_OF_PERICENTER":"99.5004","MEAN_MOTION_DDOT":"0.0000000000000","PERIOD":"95.918","RCS_SIZE":"LARGE","CLASSIFICATION_TYPE":"U","EPHEMERIS_TYPE":"0","GP_ID":"221893099","INCLINATION":"97.6563","FILE":"3728081","MEAN_ELEMENT_THEORY":"SGP4","TIME_SYSTEM":"UTC","MEAN_ANOMALY":"260.6407","SEMIMAJOR_AXIS":"6941.082","EPOCH":"2022-12-31T16:30:53.626752","LAUNCH_DATE":"2022-07-22","TLE_LINE1":"1 53198U 22084K   22365.68812068  .00008360  00000-0  65433-3 0  9990","PERIAPSIS":"561.799","CENTER_NAME":"EARTH","OBJECT_TYPE":"PAYLOAD"},{"ELEMENT_SET_NO":"999","RA_OF_ASC_NODE":"64.1938","MEAN_MOTION":"15.01282496","OBJECT_ID":"2022-084L","BSTAR":"0.00007985700000","PERIOD":"95.918","RCS_SIZE":"LARGE","MEAN_MOTION_DDOT":"0.0000000000000","COUNTRY_CODE":"US","ARG_OF_PERICENTER":"103.8307","MEAN_MOTION_DOT":"0.00000967","TLE_LINE2":"2 53199  97.6557  64.1938 0001867 103.8307 256.3125 15.01282496 24685","APOAPSIS":"564.238","SITE":"AFWTR","NORAD_CAT_ID":"53199","OBJECT_NAME":"STARLINK-4395","DECAY_DATE":null,"REV_AT_EPOCH":"2468","ECCENTRICITY":"0.00018670","REF_FRAME":"TEME","MEAN_ANOMALY":"256.3125","SEMIMAJOR_AXIS":"6941.078","EPOCH":"2022-12-31T17:58:51.612672","TIME_SYSTEM":"UTC","OBJECT_TYPE":"PAYLOAD","PERIAPSIS":"561.647","TLE_LINE1":"1 53199U 22084L   22365.74920848  .00000967  00000-0  79857-4 0  9995","LAUNCH_DATE":"2022-07-22","CENTER_NAME":"EARTH","EPHEMERIS_TYPE":"0","CLASSIFICATION_TYPE":"U","INCLINATION":"97.6557","FILE":"3728081","MEAN_ELEMENT_THEORY":"SGP4","GP_ID":"221893764"},{"OBJECT_NAME":"STARLINK-4417","NORAD_CAT_ID":"53200","REV_AT_EPOCH":"2533","DECAY_DATE":null,"ECCENTRICITY":"0.00009350","REF_FRAME":"TEME","MEAN_MOTION_DOT":"0.00005388","APOAPSIS":"563.604","TLE_LINE2":"2 53200  97.6538  64.1300 0000935 113.2168 246.9155 15.01278594 25330","SITE":"AFWTR","PERIOD":"95.918","RCS_SIZE":"LARGE","ARG_OF_PERICENTER":"113.2168","COUNTRY_CODE":"US","MEAN_MOTION_DDOT":"0.0000000000000","RA_OF_ASC_NODE":"64.1300","ELEMENT_SET_NO":"999","OBJECT_ID":"2022-084M","MEAN_MOTION":"15.01278594","BSTAR":"0.00042356000000","INCLINATION":"97.6538","MEAN_ELEMENT_THEORY":"SGP4","FILE":"3728081","GP_ID":"221893539","EPHEMERIS_TYPE":"0","CLASSIFICATION_TYPE":"U","OBJECT_TYPE":"PAYLOAD","LAUNCH_DATE":"2022-07-22","TLE_LINE1":"1 53200U 22084M   22365.68626119  .00005388  00000-0  42356-3 0  9990","PERIAPSIS":"562.306","CENTER_NAME":"EARTH","MEAN_ANOMALY":"246.9155","SEMIMAJOR_AXIS":"6941.090","EPOCH":"2022-12-31T16:28:12.966816","TIME_SYSTEM":"UTC"},{"OBJECT_TYPE":"PAYLOAD","CENTER_NAME":"EARTH","TLE_LINE1":"1 53201U 22084N   22365.67885847  .00007156  00000-0  56070-3 0  9998","PERIAPSIS":"561.939","LAUNCH_DATE":"2022-07-22","EPOCH":"2022-12-31T16:17:33.371808","SEMIMAJOR_AXIS":"6941.048","MEAN_ANOMALY":"249.8467","TIME_SYSTEM":"UTC","FILE":"3728081","MEAN_ELEMENT_THEORY":"SGP4","INCLINATION":"97.6563","GP_ID":"221892413","EPHEMERIS_TYPE":"0","CLASSIFICATION_TYPE":"U","RCS_SIZE":"LARGE","PERIOD":"95.917","MEAN_MOTION_DDOT":"0.0000000000000","ARG_OF_PERICENTER":"110.2908","COUNTRY_CODE":"US","MEAN_MOTION":"15.01292010","OBJECT_ID":"2022-084N","ELEMENT_SET_NO":"999","RA_OF_ASC_NODE":"64.1234","BSTAR":"0.00056070000000","DECAY_DATE":null,"REV_AT_EPOCH":"2467","NORAD_CAT_ID":"53201","OBJECT_NAME":"STARLINK-4405","REF_FRAME":"TEME","ECCENTRICITY":"0.00014030","MEAN_MOTION_DOT":"0.00007156","TLE_LINE2":"2 53201  97.6563  64.1234 0001403 110.2908 249.8467 15.01292010 24678","SITE":"AFWTR","APOAPSIS":"563.887"},{"MEAN_MOTION_DOT":"0.00000429","APOAPSIS":"567.529","TLE_LINE2":"2 53202  97.6554  64.6199 0002936 143.8826 216.2596 15.00456211 25101","SITE":"AFWTR","NORAD_CAT_ID":"53202","OBJECT_NAME":"STARLINK-4411","DECAY_DATE":null,"REV_AT_EPOCH":"2510","ECCENTRICITY":"0.00029360","REF_FRAME":"TEME","ELEMENT_SET_NO":"999","RA_OF_ASC_NODE":"64.6199","MEAN_MOTION":"15.00456211","OBJECT_ID":"2022-084P","BSTAR":"0.00003880200000","PERIOD":"95.971","RCS_SIZE":"LARGE","MEAN_MOTION_DDOT":"0.0000000000000","ARG_OF_PERICENTER":"143.8826","COUNTRY_CODE":"US","EPHEMERIS_TYPE":"0","CLASSIFICATION_TYPE":"U","INCLINATION":"97.6554","FILE":"3728026","MEAN_ELEMENT_THEORY":"SGP4","GP_ID":"221866527","MEAN_ANOMALY":"216.2596","SEMIMAJOR_AXIS":"6943.626","EPOCH":"2022-12-31T21:24:34.380576","TIME_SYSTEM":"UTC","OBJECT_TYPE":"PAYLOAD","TLE_LINE1":"1 53202U 22084P   22365.89206459  .00000429  00000-0  38802-4 0  9999","PERIAPSIS":"563.452","LAUNCH_DATE":"2022-07-22","CENTER_NAME":"EARTH"},{"EPHEMERIS_TYPE":"0","CLASSIFICATION_TYPE":"U","INCLINATION":"97.6564","MEAN_ELEMENT_THEORY":"SGP4","FILE":"3728081","GP_ID":"221893325","MEAN_ANOMALY":"237.3862","SEMIMAJOR_AXIS":"6941.030","EPOCH":"2022-12-31T17:48:11.871648","TIME_SYSTEM":"UTC","OBJECT_TYPE":"PAYLOAD","LAUNCH_DATE":"2022-07-22","TLE_LINE1":"1 53203U 22084Q   22365.74180407 -.00001823  00000-0 -13727-3 0  9997","PERIAPSIS":"562.001","CENTER_NAME":"EARTH","MEAN_MOTION_DOT":"-0.00001823","SITE":"AFWTR","TLE_LINE2":"2 53203  97.6564  64.1840 0001287 122.7487 237.3862 15.01298064 24681","APOAPSIS":"563.788","OBJECT_NAME":"STARLINK-4409","NORAD_CAT_ID":"53203","REV_AT_EPOCH":"2468","DECAY_DATE":null,"ECCENTRICITY":"0.00012870","REF_FRAME":"TEME","RA_OF_ASC_NODE":"64.1840","ELEMENT_SET_NO":"999","OBJECT_ID":"2022-084Q","MEAN_MOTION":"15.01298064","BSTAR":"-0.00013727000000","PERIOD":"95.917","RCS_SIZE":"LARGE","COUNTRY_CODE":"US","ARG_OF_PERICENTER":"122.7487","MEAN_MOTION_DDOT":"0.0000000000000"},{"TLE_LINE2":"2 53204  97.6562  64.1252 0001591 117.7717 242.3669 15.01293359 25331","SITE":"AFWTR","APOAPSIS":"564.013","MEAN_MOTION_DOT":"0.00008745","ECCENTRICITY":"0.00015910","REF_FRAME":"TEME","NORAD_CAT_ID":"53204","OBJECT_NAME":"STARLINK-4410","DECAY_DATE":null,"REV_AT_EPOCH":"2533","BSTAR":"0.00068403000000","ELEMENT_SET_NO":"999","RA_OF_ASC_NODE":"64.1252","OBJECT_ID":"2022-084R","MEAN_MOTION":"15.01293359","MEAN_MOTION_DDOT":"0.0000000000000","COUNTRY_CODE":"US","ARG_OF_PERICENTER":"117.7717","PERIOD":"95.917","RCS_SIZE":"LARGE","CLASSIFICATION_TYPE":"U","EPHEMERIS_TYPE":"0","GP_ID":"221893979","INCLINATION":"97.6562","FILE":"3728081","MEAN_ELEMENT_THEORY":"SGP4","TIME_SYSTEM":"UTC","MEAN_ANOMALY":"242.3669","SEMIMAJOR_AXIS":"6941.044","EPOCH":"2022-12-31T16:20:13.978176","PERIAPSIS":"561.805","TLE_LINE1":"1 53204U 22084R   22365.68071734  .00008745  00000-0  68403-3 0  9992","LAUNCH_DATE":"2022-07-22","CENTER_NAME":"EARTH","OBJECT_TYPE":"PAYLOAD"},{"PERIOD":"95.918","RCS_SIZE":"LARGE","MEAN_MOTION_DDOT":"0.0000000000000","ARG_OF_PERICENTER":"97.6942","COUNTRY_CODE":"US","ELEMENT_SET_NO":"999","RA_OF_ASC_NODE":"64.1810","MEAN_MOTION":"15.01287160","OBJECT_ID":"2022-084S","BSTAR":"0.00035268000000","NORAD_CAT_ID":"53205","OBJECT_NAME":"STARLINK-4397","DECAY_DATE":null,"REV_AT_EPOCH":"2468","ECCENTRICITY":"0.00010940","REF_FRAME":"TEME","MEAN_MOTION_DOT":"0.00004477","TLE_LINE2":"2 53205  97.6566  64.1810 0001094  97.6942 262.4407 15.01287160 24683","SITE":"AFWTR","APOAPSIS":"563.687","OBJECT_TYPE":"PAYLOAD","TLE_LINE1":"1 53205U 22084S   22365.73809853  .00004477  00000-0  35268-3 0  9991","PERIAPSIS":"562.169","LAUNCH_DATE":"2022-07-22","CENTER_NAME":"EARTH","MEAN_ANOMALY":"262.4407","SEMIMAJOR_AXIS":"6941.063","EPOCH":"2022-12-31T17:42:51.712992","TIME_SYSTEM":"UTC","INCLINATION":"97.6566","FILE":"3728081","MEAN_ELEMENT_THEORY":"SGP4","GP_ID":"221892875","EPHEMERIS_TYPE":"0","CLASSIFICATION_TYPE":"U"},{"SEMIMAJOR_AXIS":"6941.140","EPOCH":"2022-12-31T17:48:33.197760","MEAN_ANOMALY":"237.7159","TIME_SYSTEM":"UTC","OBJECT_TYPE":"PAYLOAD","CENTER_NAME":"EARTH","TLE_LINE1":"1 53206U 22084T   22365.74205090  .00003866  00000-0  30541-3 0  9996","PERIAPSIS":"561.857","LAUNCH_DATE":"2022-07-22","EPHEMERIS_TYPE":"0","CLASSIFICATION_TYPE":"U","MEAN_ELEMENT_THEORY":"SGP4","FILE":"3728081","INCLINATION":"97.6561","GP_ID":"221893100","MEAN_MOTION":"15.01262086","OBJECT_ID":"2022-084T","ELEMENT_SET_NO":"999","RA_OF_ASC_NODE":"64.1846","BSTAR":"0.00030541000000","RCS_SIZE":"LARGE","PERIOD":"95.919","MEAN_MOTION_DDOT":"0.0000000000000","COUNTRY_CODE":"US","ARG_OF_PERICENTER":"122.4226","MEAN_MOTION_DOT":"0.00003866","TLE_LINE2":"2 53206  97.6561  64.1846 0001654 122.4226 237.7159 15.01262086 24681","APOAPSIS":"564.153","SITE":"AFWTR","DECAY_DATE":null,"REV_AT_EPOCH":"2468","NORAD_CAT_ID":"53206","OBJECT_NAME":"STARLINK-4408","REF_FRAME":"TEME","ECCENTRICITY":"0.00016540"}];
